<?xml version="1.0" encoding="utf-8"?>
<gpx version="1.1" creator="RuffTerrain Explorer" xmlns="http://www.topografix.com/GPX/1/1" xmlns:ca="http://coursearchitect.com/schema/v1">
  <metadata>
    <name>Google Routes API Route</name>
  </metadata>
  <wpt lat="40.7409" lon="-74.0081">
    <ele>0</ele>
    <name>The Standard Biergarten</name>
    <sym>icons/aid_station.svg</sym>
    <desc>Pass 1 at 1.38km (The Standard Biergarten) | Pass 2 at 4.33km (Inbound)</desc>
    <extensions>
      <ca:station type="segmenting" id="the_standard_biergarten" subtype="aid_station">
        <ca:passes>
          <ca:pass num="1" dist_m="1382.1" label="The Standard Biergarten"/>
          <ca:pass num="2" dist_m="4332.3" label="Inbound"/>
        </ca:passes>
        <ca:services food="true" hot_food="false" medical="false" sleep_area="false" toilets="true" unmanaged_water="false" water="true"/>
      </ca:station>
    </extensions>
  </wpt>
  <trk>
    <name>Google Routes API Route</name>
    <trkseg>
      <trkpt lat="40.74176" lon="-74.00317">
        <ele>0</ele>
      </trkpt>
      <trkpt lat="40.74115" lon="-74.00172">
        <ele>0</ele>
      </trkpt>
      <trkpt lat="40.74108" lon="-74.00155">
        <ele>0</ele>
      </trkpt>
      <trkpt lat="40.74167" lon="-74.00113">
        <ele>0</ele>
      </trkpt>
      <trkpt lat="40.74475" lon="-74.00844">
        <ele>0</ele>
      </trkpt>
      <trkpt lat="40.74223" lon="-74.00893">
        <ele>0</ele>
      </trkpt>
      <trkpt lat="40.74177" lon="-74.00903">
        <ele>0</ele>
      </trkpt>
      <trkpt lat="40.74078" lon="-74.00926">
        <ele>0</ele>
      </trkpt>
      <trkpt lat="40.74073" lon="-74.00928">
        <ele>0</ele>
      </trkpt>
      <trkpt lat="40.74029" lon="-74.00952">
        <ele>0</ele>
      </trkpt>
      <trkpt lat="40.73955" lon="-74.00996">
        <ele>0</ele>
      </trkpt>
      <trkpt lat="40.73918" lon="-74.01009">
        <ele>0</ele>
      </trkpt>
      <trkpt lat="40.73881" lon="-74.01014">
        <ele>0</ele>
      </trkpt>
      <trkpt lat="40.73747" lon="-74.01003">
        <ele>0</ele>
      </trkpt>
      <trkpt lat="40.73011" lon="-74.01069">
        <ele>0</ele>
      </trkpt>
      <trkpt lat="40.72983" lon="-74.01071">
        <ele>0</ele>
      </trkpt>
      <trkpt lat="40.72982" lon="-74.01049">
        <ele>0</ele>
      </trkpt>
      <trkpt lat="40.73731" lon="-74.00981">
        <ele>0</ele>
      </trkpt>
      <trkpt lat="40.73776" lon="-74.0098">
        <ele>0</ele>
      </trkpt>
      <trkpt lat="40.73894" lon="-74.00994">
        <ele>0</ele>
      </trkpt>
      <trkpt lat="40.7392" lon="-74.0099">
        <ele>0</ele>
      </trkpt>
      <trkpt lat="40.73947" lon="-74.00983">
        <ele>0</ele>
      </trkpt>
      <trkpt lat="40.73989" lon="-74.0096">
        <ele>0</ele>
      </trkpt>
      <trkpt lat="40.74045" lon="-74.00926">
        <ele>0</ele>
      </trkpt>
      <trkpt lat="40.74077" lon="-74.00911">
        <ele>0</ele>
      </trkpt>
      <trkpt lat="40.74187" lon="-74.00881">
        <ele>0</ele>
      </trkpt>
      <trkpt lat="40.74234" lon="-74.00871">
        <ele>0</ele>
      </trkpt>
      <trkpt lat="40.74231" lon="-74.00859">
        <ele>0</ele>
      </trkpt>
      <trkpt lat="40.74233" lon="-74.00848">
        <ele>0</ele>
      </trkpt>
      <trkpt lat="40.74216" lon="-74.00825">
        <ele>0</ele>
      </trkpt>
      <trkpt lat="40.74213" lon="-74.00819">
        <ele>0</ele>
      </trkpt>
      <trkpt lat="40.74206" lon="-74.00827">
        <ele>0</ele>
      </trkpt>
      <trkpt lat="40.74128" lon="-74.0088">
        <ele>0</ele>
      </trkpt>
      <trkpt lat="40.74073" lon="-74.00896">
        <ele>0</ele>
      </trkpt>
      <trkpt lat="40.7409" lon="-74.0081">
        <ele>0</ele>
      </trkpt>
      <trkpt lat="40.74046" lon="-74.0083">
        <ele>0</ele>
      </trkpt>
      <trkpt lat="40.74032" lon="-74.00797">
        <ele>0</ele>
      </trkpt>
      <trkpt lat="40.73939" lon="-74.00805">
        <ele>0</ele>
      </trkpt>
      <trkpt lat="40.73937" lon="-74.00948">
        <ele>0</ele>
      </trkpt>
      <trkpt lat="40.73937" lon="-74.0097">
        <ele>0</ele>
      </trkpt>
      <trkpt lat="40.73894" lon="-74.00977">
        <ele>0</ele>
      </trkpt>
      <trkpt lat="40.73877" lon="-74.00993">
        <ele>0</ele>
      </trkpt>
      <trkpt lat="40.73903" lon="-74.00993">
        <ele>0</ele>
      </trkpt>
      <trkpt lat="40.73947" lon="-74.00983">
        <ele>0</ele>
      </trkpt>
      <trkpt lat="40.73989" lon="-74.0096">
        <ele>0</ele>
      </trkpt>
      <trkpt lat="40.74045" lon="-74.00926">
        <ele>0</ele>
      </trkpt>
      <trkpt lat="40.74077" lon="-74.00911">
        <ele>0</ele>
      </trkpt>
      <trkpt lat="40.74187" lon="-74.00881">
        <ele>0</ele>
      </trkpt>
      <trkpt lat="40.74234" lon="-74.00871">
        <ele>0</ele>
      </trkpt>
      <trkpt lat="40.74231" lon="-74.00859">
        <ele>0</ele>
      </trkpt>
      <trkpt lat="40.74239" lon="-74.0082">
        <ele>0</ele>
      </trkpt>
      <trkpt lat="40.7425" lon="-74.00792">
        <ele>0</ele>
      </trkpt>
      <trkpt lat="40.74281" lon="-74.00769">
        <ele>0</ele>
      </trkpt>
      <trkpt lat="40.74328" lon="-74.00872">
        <ele>0</ele>
      </trkpt>
      <trkpt lat="40.74088" lon="-74.00923">
        <ele>0</ele>
      </trkpt>
      <trkpt lat="40.74073" lon="-74.00928">
        <ele>0</ele>
      </trkpt>
      <trkpt lat="40.74029" lon="-74.00952">
        <ele>0</ele>
      </trkpt>
      <trkpt lat="40.73955" lon="-74.00996">
        <ele>0</ele>
      </trkpt>
      <trkpt lat="40.73918" lon="-74.01009">
        <ele>0</ele>
      </trkpt>
      <trkpt lat="40.73881" lon="-74.01014">
        <ele>0</ele>
      </trkpt>
      <trkpt lat="40.73747" lon="-74.01003">
        <ele>0</ele>
      </trkpt>
      <trkpt lat="40.73011" lon="-74.01069">
        <ele>0</ele>
      </trkpt>
      <trkpt lat="40.72983" lon="-74.01071">
        <ele>0</ele>
      </trkpt>
      <trkpt lat="40.72982" lon="-74.01036">
        <ele>0</ele>
      </trkpt>
      <trkpt lat="40.72971" lon="-74.00919">
        <ele>0</ele>
      </trkpt>
      <trkpt lat="40.72909" lon="-74.0093">
        <ele>0</ele>
      </trkpt>
      <trkpt lat="40.72897" lon="-74.00934">
        <ele>0</ele>
      </trkpt>
      <trkpt lat="40.72856" lon="-74.00941">
        <ele>0</ele>
      </trkpt>
    </trkseg>
  </trk>
</gpx>
